[{"OBJECT_NAME":"SDA_1670","OBJECT_ID":"2025-230G","EPOCH":"2026-03-09T17:23:00.469536","MEAN_MOTION":13.84837821,"ECCENTRICITY":0.00038733,"INCLINATION":81.2981,"RA_OF_ASC_NODE":303.9295,"ARG_OF_PERICENTER":76.4422,"MEAN_ANOMALY":283.7167,"EPHEMERIS_TYPE":0,"CLASSIFICATION_TYPE":"U","NORAD_CAT_ID":65980,"ELEMENT_SET_NO":999,"REV_AT_EPOCH":2004,"BSTAR":9.0952862e-5,"MEAN_MOTION_DOT":1.14e-6,"MEAN_MOTION_DDOT":0},{"OBJECT_NAME":"FENGYUN 1C DEB","OBJECT_ID":"1999-025EQB","EPOCH":"2026-03-07T02:28:09.338304","MEAN_MOTION":13.77651806,"ECCENTRICITY":0.02047548,"INCLINATION":98.5966,"RA_OF_ASC_NODE":114.9102,"ARG_OF_PERICENTER":358.9059,"MEAN_ANOMALY":1.1621,"EPHEMERIS_TYPE":0,"CLASSIFICATION_TYPE":"U","NORAD_CAT_ID":38130,"ELEMENT_SET_NO":999,"REV_AT_EPOCH":70444,"BSTAR":0.0015487945,"MEAN_MOTION_DOT":1.766e-5,"MEAN_MOTION_DDOT":0}]
